{
    "links": {
        "self": "http://www.neowsapp.com/rest/v1/neo/3669148?api_key=iIulBulltgU6a56xZRHN4H3l9WmuAYTsLGpBGhQ2"
    },
    "id": "3669148",
    "neo_reference_id": "3669148",
    "name": "(2014 HV46)",
    "designation": "2014 HV46",
    "nasa_jpl_url": "http://ssd.jpl.nasa.gov/sbdb.cgi?sstr=3669148",
    "absolute_magnitude_h": 23.2,
    "estimated_diameter": {
        "kilometers": {
            "estimated_diameter_min": 0.0608912622,
            "estimated_diameter_max": 0.1361570015
        },
        "meters": {
            "estimated_diameter_min": 60.8912622106,
            "estimated_diameter_max": 136.1570015386
        },
        "miles": {
            "estimated_diameter_min": 0.0378360645,
            "estimated_diameter_max": 0.0846040122
        },
        "feet": {
            "estimated_diameter_min": 199.7744887109,
            "estimated_diameter_max": 446.7093369279
        }
    },
    "is_potentially_hazardous_asteroid": false,
    "close_approach_data": [
        {
            "close_approach_date": "2014-05-05",
            "close_approach_date_full": "2014-May-05 13:06",
            "epoch_date_close_approach": 1399295160000,
            "relative_velocity": {
                "kilometers_per_second": "1.6776336517",
                "kilometers_per_hour": "6039.4811460381",
                "miles_per_hour": "3752.6987154368"
            },
            "miss_distance": {
                "astronomical": "0.269374167",
                "lunar": "104.786550963",
                "kilometers": "40297801.61622429",
                "miles": "25039892.809063602"
            },
            "orbiting_body": "Earth"
        }
    ],
    "orbital_data": {
        "orbit_id": "11",
        "orbit_determination_date": "2017-04-06 08:41:25",
        "first_observation_date": "2014-04-23",
        "last_observation_date": "2014-05-21",
        "data_arc_in_days": 28,
        "observations_used": 19,
        "orbit_uncertainty": "8",
        "minimum_orbit_intersection": ".268201",
        "jupiter_tisserand_invariant": "3.620",
        "epoch_osculation": "2456790.5",
        "eccentricity": ".3998933965077958",
        "semi_major_axis": "2.125222677958932",
        "inclination": "1.44789662518511",
        "ascending_node_longitude": "131.3256891494843",
        "orbital_period": "1131.63165965096",
        "perihelion_distance": "1.275360162934541",
        "perihelion_argument": "92.71066134232808",
        "aphelion_distance": "2.975085192983322",
        "perihelion_time": "2456783.637034018784",
        "mean_anomaly": "2.183279101611396",
        "mean_motion": ".3181247156968359",
        "equinox": "J2000",
        "orbit_class": {
            "orbit_class_type": "AMO",
            "orbit_class_description": "Near-Earth asteroid orbits similar to that of 1221 Amor",
            "orbit_class_range": "1.017 AU < q (perihelion) < 1.3 AU"
        }
    },
    "is_sentry_object": false
}